ORBCOMM-X               
1 21576U 91050C   25104.73321172  .00000785  00000+0  24614-3 0  9993
2 21576  98.3475 172.6124 0004093  37.0987 323.0486 14.43199873772968
ORBCOMM FM01            
1 23545U 95017A   25104.74647004  .00012411  00000+0  13178-2 0  9995
2 23545  69.9643 232.2326 0001405 347.0957  13.0160 14.89181509603065
ORBCOMM FM02            
1 23546U 95017B   25104.85628315  .00013477  00000+0  14083-2 0  9991
2 23546  69.9651 251.5298 0002091  25.9081 334.2178 14.89799213602725
ORBCOMM FM08            
1 25112U 97084A   25104.95157100  .00002960  00000+0  87056-3 0  9994
2 25112  45.0139 311.3740 0005811 287.0082  73.0132 14.45558993432228
ORBCOMM FM10            
1 25113U 97084B   25104.92345360  .00003072  00000+0  90618-3 0  9992
2 25113  45.0153 313.7794 0004311 248.9285 111.1105 14.45349676607364
ORBCOMM FM11            
1 25114U 97084C   25104.98626036  .00003213  00000+0  95055-3 0  9998
2 25114  45.0137 313.9975 0005109 252.1935 107.8359 14.45100355432363
ORBCOMM FM12            
1 25115U 97084D   25104.88054483  .00002891  00000+0  85911-3 0  9990
2 25115  45.0148 314.2612 0004106 248.3123 111.7291 14.45123409432117
ORBCOMM FM09            
1 25116U 97084E   25104.90752241  .00003013  00000+0  89573-3 0  9996
2 25116  45.0150 315.0031 0005504 236.9412 123.0911 14.45007060432324
